{"type": "FeatureCollection", "features": [ {"type": "Feature", "properties": {"norad_id": 66574, "name": "STARLINK-35812", "group": "last-30-days", "lat": -14.803071065540069, "lon": -94.88826845564827, "alt_km": 399.1714003460729, "timestamp": "2025-12-21T16:47:53.447680+00:00", "meta": {"OBJECT_NAME": "STARLINK-35812", "OBJECT_ID": "2025-268T", "EPOCH": "2025-12-21T12:00:02.000160", "MEAN_MOTION": 15.56422011, "ECCENTRICITY": 0.0001422, "INCLINATION": 43.0006, "RA_OF_ASC_NODE": 69.8169, "ARG_OF_PERICENTER": 269.1891, "MEAN_ANOMALY": 251.3395, "EPHEMERIS_TYPE": 0, "CLASSIFICATION_TYPE": "U", "NORAD_CAT_ID": 66574, "ELEMENT_SET_NO": 999, "REV_AT_EPOCH": 607, "BSTAR": -0.00036295, "MEAN_MOTION_DOT": -0.0002662, "MEAN_MOTION_DDOT": 0}, "tle": {"line1": "1 66574U 25268T   25355.50002315 -.00026620  00000+0 -36295-3 0  9992", "line2": "2 66574  43.0006  69.8169 0001422 269.1891 251.3395 15.56422011  6075"}}, "geometry": {"type": "Point", "coordinates": [-94.88826845564827, -14.803071065540069]}}, {"type": "Feature", "properties": {"norad_id": 66575, "name": "STARLINK-35810", "group": "last-30-days", "lat": -16.053691451379077, "lon": -93.38111676635121, "alt_km": 399.2366992620673, "timestamp": "2025-12-21T16:47:53.447690+00:00", "meta": {"OBJECT_NAME": "STARLINK-35810", "OBJECT_ID": "2025-268U", "EPOCH": "2025-12-21T12:00:02.000160", "MEAN_MOTION": 15.56414018, "ECCENTRICITY": 0.00014, "INCLINATION": 43.0008, "RA_OF_ASC_NODE": 69.8119, "ARG_OF_PERICENTER": 265.5143, "MEAN_ANOMALY": 256.9408, "EPHEMERIS_TYPE": 0, "CLASSIFICATION_TYPE": "U", "NORAD_CAT_ID": 66575, "ELEMENT_SET_NO": 999, "REV_AT_EPOCH": 607, "BSTAR": -0.00036598, "MEAN_MOTION_DOT": -0.0002683, "MEAN_MOTION_DDOT": 0}, "tle": {"line1": "1 66575U 25268U   25355.50002315 -.00026830  00000+0 -36598-3 0  9992", "line2": "2 66575  43.0008  69.8119 0001400 265.5143 256.9408 15.56414018  6073"}}, "geometry": {"type": "Point", "coordinates": [-93.38111676635121, -16.053691451379077]}}, {"type": "Feature", "properties": {"norad_id": 66576, "name": "STARLINK-35814", "group": "last-30-days", "lat": -17.29199386043388, "lon": -91.85672118163528, "alt_km": 399.35101977340673, "timestamp": "2025-12-21T16:47:53.447700+00:00", "meta": {"OBJECT_NAME": "STARLINK-35814", "OBJECT_ID": "2025-268V", "EPOCH": "2025-12-21T12:00:02.000160", "MEAN_MOTION": 15.56406428, "ECCENTRICITY": 0.0001483, "INCLINATION": 43.0007, "RA_OF_ASC_NODE": 69.8069, "ARG_OF_PERICENTER": 268.4026, "MEAN_ANOMALY": 255.9765, "EPHEMERIS_TYPE": 0, "CLASSIFICATION_TYPE": "U", "NORAD_CAT_ID": 66576, "ELEMENT_SET_NO": 999, "REV_AT_EPOCH": 607, "BSTAR": -0.00019516, "MEAN_MOTION_DOT": -0.00014497, "MEAN_MOTION_DDOT": 0}, "tle": {"line1": "1 66576U 25268V   25355.50002315 -.00014497  00000+0 -19516-3 0  9990", "line2": "2 66576  43.0007  69.8069 0001483 268.4026 255.9765 15.56406428  6071"}}, "geometry": {"type": "Point", "coordinates": [-91.85672118163528, -17.29199386043388]}}, {"type": "Feature", "properties": {"norad_id": 66577, "name": "STARLINK-35815", "group": "last-30-days", "lat": -18.51735189081797, "lon": -90.31325783470504, "alt_km": 399.4675581467409, "timestamp": "2025-12-21T16:47:53.447710+00:00", "meta": {"OBJECT_NAME": "STARLINK-35815", "OBJECT_ID": "2025-268W", "EPOCH": "2025-12-21T12:00:02.000160", "MEAN_MOTION": 15.56399608, "ECCENTRICITY": 0.0001534, "INCLINATION": 43.0009, "RA_OF_ASC_NODE": 69.8021, "ARG_OF_PERICENTER": 270.8633, "MEAN_ANOMALY": 255.4376, "EPHEMERIS_TYPE": 0, "CLASSIFICATION_TYPE": "U", "NORAD_CAT_ID": 66577, "ELEMENT_SET_NO": 999, "REV_AT_EPOCH": 607, "BSTAR": -8.8021e-05, "MEAN_MOTION_DOT": -6.745e-05, "MEAN_MOTION_DDOT": 0}, "tle": {"line1": "1 66577U 25268W   25355.50002315 -.00006745  00000+0 -88021-4 0  9996", "line2": "2 66577  43.0009  69.8021 0001534 270.8633 255.4376 15.56399608  6074"}}, "geometry": {"type": "Point", "coordinates": [-90.31325783470504, -18.51735189081797]}}, {"type": "Feature", "properties": {"norad_id": 66578, "name": "STARLINK-35743", "group": "last-30-days", "lat": -19.82354639057275, "lon": -88.63074056596065, "alt_km": 398.5783492664368, "timestamp": "2025-12-21T16:47:53.447720+00:00", "meta": {"OBJECT_NAME": "STARLINK-35743", "OBJECT_ID": "2025-268X", "EPOCH": "2025-12-21T06:39:38.452032", "MEAN_MOTION": 15.564231, "ECCENTRICITY": 0.0001539, "INCLINATION": 42.9989, "RA_OF_ASC_NODE": 71.1029, "ARG_OF_PERICENTER": 218.497, "MEAN_ANOMALY": 141.5783, "EPHEMERIS_TYPE": 0, "CLASSIFICATION_TYPE": "U", "NORAD_CAT_ID": 66578, "ELEMENT_SET_NO": 999, "REV_AT_EPOCH": 595, "BSTAR": 0.0020516, "MEAN_MOTION_DOT": 0.001514, "MEAN_MOTION_DDOT": 0}, "tle": {"line1": "1 66578U 25268X   25355.27752838  .00151400  00000+0  20516-2 0  9993", "line2": "2 66578  42.9989  71.1029 0001539 218.4970 141.5783 15.56423100  5959"}}, "geometry": {"type": "Point", "coordinates": [-88.63074056596065, -19.82354639057275]}}, {"type": "Feature", "properties": {"norad_id": 66579, "name": "STARLINK-35868", "group": "last-30-days", "lat": -20.928537320311843, "lon": -87.15794602415087, "alt_km": 399.6135632564137, "timestamp": "2025-12-21T16:47:53.447730+00:00", "meta": {"OBJECT_NAME": "STARLINK-35868", "OBJECT_ID": "2025-268Y", "EPOCH": "2025-12-21T12:00:02.000160", "MEAN_MOTION": 15.56403711, "ECCENTRICITY": 0.0001513, "INCLINATION": 43.0009, "RA_OF_ASC_NODE": 69.7924, "ARG_OF_PERICENTER": 270.842, "MEAN_ANOMALY": 259.2908, "EPHEMERIS_TYPE": 0, "CLASSIFICATION_TYPE": "U", "NORAD_CAT_ID": 66579, "ELEMENT_SET_NO": 999, "REV_AT_EPOCH": 607, "BSTAR": -0.00013172, "MEAN_MOTION_DOT": -9.909e-05, "MEAN_MOTION_DDOT": 0}, "tle": {"line1": "1 66579U 25268Y   25355.50002315 -.00009909  00000+0 -13172-3 0  9997", "line2": "2 66579  43.0009  69.7924 0001513 270.8420 259.2908 15.56403711  6072"}}, "geometry": {"type": "Point", "coordinates": [-87.15794602415087, -20.928537320311843]}}, {"type": "Feature", "properties": {"norad_id": 66580, "name": "STARLINK-35872", "group": "last-30-days", "lat": -22.21559657439892, "lon": -85.40259873563136, "alt_km": 398.9439656495706, "timestamp": "2025-12-21T16:47:53.447741+00:00", "meta": {"OBJECT_NAME": "STARLINK-35872", "OBJECT_ID": "2025-268Z", "EPOCH": "2025-12-21T08:11:04.064064", "MEAN_MOTION": 15.56443652, "ECCENTRICITY": 0.0001313, "INCLINATION": 42.9972, "RA_OF_ASC_NODE": 70.7191, "ARG_OF_PERICENTER": 183.7602, "MEAN_ANOMALY": 176.3251, "EPHEMERIS_TYPE": 0, "CLASSIFICATION_TYPE": "U", "NORAD_CAT_ID": 66580, "ELEMENT_SET_NO": 999, "REV_AT_EPOCH": 596, "BSTAR": 0.002404, "MEAN_MOTION_DOT": 0.00178203, "MEAN_MOTION_DDOT": 0}, "tle": {"line1": "1 66580U 25268Z   25355.34101926  .00178203  00000+0  24040-2 0  9996", "line2": "2 66580  42.9972  70.7191 0001313 183.7602 176.3251 15.56443652  5966"}}, "geometry": {"type": "Point", "coordinates": [-85.40259873563136, -22.21559657439892]}}, {"type": "Feature", "properties": {"norad_id": 66581, "name": "STARLINK-35744", "group": "last-30-days", "lat": -23.28040640955358, "lon": -83.89889554328613, "alt_km": 399.84925025374196, "timestamp": "2025-12-21T16:47:53.447753+00:00", "meta": {"OBJECT_NAME": "STARLINK-35744", "OBJECT_ID": "2025-268AA", "EPOCH": "2025-12-21T12:00:02.000160", "MEAN_MOTION": 15.56395407, "ECCENTRICITY": 0.0001573, "INCLINATION": 43.0008, "RA_OF_ASC_NODE": 69.7828, "ARG_OF_PERICENTER": 277.526, "MEAN_ANOMALY": 256.45, "EPHEMERIS_TYPE": 0, "CLASSIFICATION_TYPE": "U", "NORAD_CAT_ID": 66581, "ELEMENT_SET_NO": 999, "REV_AT_EPOCH": 602, "BSTAR": -4.5976e-05, "MEAN_MOTION_DOT": -3.7e-05, "MEAN_MOTION_DDOT": 0}, "tle": {"line1": "1 66581U 25268AA  25355.50002315 -.00003700  00000+0 -45976-4 0  9991", "line2": "2 66581  43.0008  69.7828 0001573 277.5260 256.4500 15.56395407  6023"}}, "geometry": {"type": "Point", "coordinates": [-83.89889554328613, -23.28040640955358]}}, {"type": "Feature", "properties": {"norad_id": 66582, "name": "STARLINK-35746", "group": "last-30-days", "lat": -24.42986840449483, "lon": -82.22839759947605, "alt_km": 399.9067327298617, "timestamp": "2025-12-21T16:47:53.447764+00:00", "meta": {"OBJECT_NAME": "STARLINK-35746", "OBJECT_ID": "2025-268AB", "EPOCH": "2025-12-21T12:00:02.000160", "MEAN_MOTION": 15.56399187, "ECCENTRICITY": 0.0001612, "INCLINATION": 43.0008, "RA_OF_ASC_NODE": 69.7777, "ARG_OF_PERICENTER": 278.5576, "MEAN_ANOMALY": 257.334, "EPHEMERIS_TYPE": 0, "CLASSIFICATION_TYPE": "U", "NORAD_CAT_ID": 66582, "ELEMENT_SET_NO": 999, "REV_AT_EPOCH": 607, "BSTAR": -0.00012301, "MEAN_MOTION_DOT": -9.277e-05, "MEAN_MOTION_DDOT": 0}, "tle": {"line1": "1 66582U 25268AB  25355.50002315 -.00009277  00000+0 -12301-3 0  9992", "line2": "2 66582  43.0008  69.7777 0001612 278.5576 257.3340 15.56399187  6078"}}, "geometry": {"type": "Point", "coordinates": [-82.22839759947605, -24.42986840449483]}}, {"type": "Feature", "properties": {"norad_id": 66583, "name": "STARLINK-35941", "group": "last-30-days", "lat": -25.560759136944352, "lon": -80.52662583408768, "alt_km": 399.85613122337327, "timestamp": "2025-12-21T16:47:53.447774+00:00", "meta": {"OBJECT_NAME": "STARLINK-35941", "OBJECT_ID": "2025-268AC", "EPOCH": "2025-12-21T12:00:02.000160", "MEAN_MOTION": 15.5635982, "ECCENTRICITY": 0.0001531, "INCLINATION": 43.0007, "RA_OF_ASC_NODE": 69.7728, "ARG_OF_PERICENTER": 265.7409, "MEAN_ANOMALY": 272.0861, "EPHEMERIS_TYPE": 0, "CLASSIFICATION_TYPE": "U", "NORAD_CAT_ID": 66583, "ELEMENT_SET_NO": 999, "REV_AT_EPOCH": 607, "BSTAR": 0.00058475, "MEAN_MOTION_DOT": 0.00042196, "MEAN_MOTION_DDOT": 0}, "tle": {"line1": "1 66583U 25268AC  25355.50002315  .00042196  00000+0  58475-3 0  9990", "line2": "2 66583  43.0007  69.7728 0001531 265.7409 272.0861 15.56359820  6079"}}, "geometry": {"type": "Point", "coordinates": [-80.52662583408768, -25.560759136944352]}}]}